LEMUR-2-BALTO           
1 63395U 25052BH  25110.64014143  .00009655  00000+0  91776-3 0  9999
2 63395  97.7327   5.1983 0002834  26.4605 333.6759 14.93669659  5558
LEMUR-2-MARACHE-FRAN    
1 63396U 25052BJ  25088.26217952  .00003893  00000+0  37899-3 0  9999
2 63396  97.7387 343.1835 0004247  78.4226 281.7470 14.93086536  2223
